NORAD_CAT_ID,OBJECT_NAME,OBJECT_TYPE,EPOCH,MEAN_MOTION,ECCENTRICITY,INCLINATION,RA_OF_ASC_NODE,ARG_OF_PERICENTER,MEAN_ANOMALY,BSTAR,MEAN_MOTION_DOT,MEAN_MOTION_DDOT,TLE_LINE0,TLE_LINE1,TLE_LINE2,SEMIMAJOR_AXIS,PERIOD,APOGEE,PERIGEE,DECAYED
51813.0,STARLINK-3552,PAYLOAD,2022-12-07 06:26:35,15.08827865,0.0002719,53.2175,264.1571,32.5935,327.5225,-0.00023887,-4.087e-05,0.0,0 STARLINK-3552,1 51813U 22017AX  22341.26847087 -.00004087  00000-0 -23887-3 0  9996,2 51813  53.2175 264.1571 0002719  32.5935 327.5225 15.08827865 44672,6917.917,95.438,541.663,537.901,0.0
51813.0,STARLINK-3552,PAYLOAD,2022-12-07 23:55:50,15.08845266,0.0002833,53.2173,260.8862,32.9353,327.1815,0.00019086,2.751e-05,0.0,0 STARLINK-3552,1 51813U 22017AX  22341.99710740  .00002751  00000-0  19086-3 0  9991,2 51813  53.2173 260.8862 0002833  32.9353 327.1815 15.08845266 44891,6917.864000000001,95.437,541.689,537.769,0.0
51813.0,STARLINK-3552,PAYLOAD,2022-12-08 04:41:59,15.08856024,0.0002817,53.2174,259.994,33.8136,326.3035,0.00037069,5.619e-05,0.0,0 STARLINK-3552,1 51813U 22017AX  22342.19582256  .00005619  00000-0  37069-3 0  9990,2 51813  53.2174 259.9940 0002817  33.8136 326.3035 15.08856024 44810,6917.831,95.437,541.645,537.748,0.0
51813.0,STARLINK-3552,PAYLOAD,2022-12-09 01:21:59,15.08859875,0.0002825,53.2174,256.1283,33.7592,326.358,0.00044254,6.766e-05,0.0,0 STARLINK-3552,1 51813U 22017AX  22343.05693989  .00006766  00000-0  44254-3 0  9990,2 51813  53.2174 256.1283 0002825  33.7592 326.3580 15.08859875 45052,6917.82,95.436,541.639,537.73,0.0
51813.0,STARLINK-3552,PAYLOAD,2022-12-09 18:51:14,15.08831118,0.0002929,53.2173,252.8581,24.0206,336.0922,-0.00030587,-5.152e-05,0.0,0 STARLINK-3552,1 51813U 22017AX  22343.78559014 -.00005152  00000-0 -30587-3 0  9994,2 51813  53.2173 252.8581 0002929  24.0206 336.0922 15.08831118 45165,6917.908,95.438,541.799,537.746,0.0
51813.0,STARLINK-3552,PAYLOAD,2022-12-10 04:23:34,15.08831078,0.0002751,53.2171,251.0736,28.1154,331.9987,-0.00010454,-1.952e-05,0.0,0 STARLINK-3552,1 51813U 22017AX  22344.18303344 -.00001952  00000-0 -10454-3 0  9997,2 51813  53.2171 251.0736 0002751  28.1154 331.9987 15.08831078 45111,6917.908,95.438,541.6759999999998,537.87,0.0
51813.0,STARLINK-3552,PAYLOAD,2022-12-11 02:38:58,15.08837192,0.00027,53.2167,246.9109,27.6331,332.4804,0.00033288,5.013e-05,0.0,0 STARLINK-3552,1 51813U 22017AX  22345.11039848  .00005013  00000-0  33288-3 0  9996,2 51813  53.2167 246.9109 0002700  27.6331 332.4804 15.08837192 45362,6917.889,95.438,541.622,537.886,0.0
51813.0,STARLINK-3552,PAYLOAD,2022-12-11 04:14:21,15.08838246,0.0002741,53.2167,246.6133,26.527,333.5862,0.00034354,5.183e-05,0.0,0 STARLINK-3552,1 51813U 22017AX  22345.17663862  .00005183  00000-0  34354-3 0  9994,2 51813  53.2167 246.6133 0002741  26.5270 333.5862 15.08838246 45267,6917.886,95.438,541.6469999999998,537.855,0.0
51813.0,STARLINK-3552,PAYLOAD,2022-12-12 02:29:44,15.08847588,0.000239,53.2155,242.4511,26.5227,333.5887,0.00019062,2.747e-05,0.0,0 STARLINK-3552,1 51813U 22017AX  22346.10399245  .00002747  00000-0  19062-3 0  9991,2 51813  53.2155 242.4511 0002390  26.5227 333.5887 15.08847588 45402,6917.857,95.437,541.376,538.069,0.0
51813.0,STARLINK-3552,PAYLOAD,2022-12-12 16:48:13,15.08842085,0.0002573,53.2156,239.7749,28.0345,332.0785,4.2700000000000015e-05,3.91e-06,0.0,0 STARLINK-3552,1 51813U 22017AX  22346.70015384  .00000391  00000-0  42700-4 0  9995,2 51813  53.2156 239.7749 0002573  28.0345 332.0785 15.08842085 45606,6917.874,95.437,541.519,537.9590000000002,0.0
51813.0,STARLINK-3552,PAYLOAD,2022-12-13 10:17:27,15.08847964,0.0002759,53.2178,236.5032,30.6658,329.4495,0.00010565,1.394e-05,0.0,0 STARLINK-3552,1 51813U 22017AX  22347.42879227  .00001394  00000-0  10565-3 0  9996,2 51813  53.2178 236.5032 0002759  30.6658 329.4495 15.08847964 45601,6917.856,95.437,541.63,537.812,0.0
51813.0,STARLINK-3552,PAYLOAD,2022-12-13 19:49:46,15.08838145,0.0002955,53.2181,234.7205,32.7723,327.3452,7.8774e-05,9.65e-06,0.0,0 STARLINK-3552,1 51813U 22017AX  22347.82623807  .00000965  00000-0  78774-4 0  9991,2 51813  53.2181 234.7205 0002955  32.7723 327.3452 15.08838145 45668,6917.886,95.438,541.795,537.707,0.0
51813.0,STARLINK-3552,PAYLOAD,2022-12-14 00:35:56,15.08838995,0.0002942,53.2179,233.8282,32.9906,327.127,8.2651e-05,1.027e-05,0.0,0 STARLINK-3552,1 51813U 22017AX  22348.02495745  .00001027  00000-0  82651-4 0  9991,2 51813  53.2179 233.8282 0002942  32.9906 327.1270 15.08838995 45806,6917.8830000000025,95.438,541.784,537.7130000000002,0.0
51813.0,STARLINK-3552,PAYLOAD,2022-12-14 10:08:14,15.08844005,0.0002947,53.2178,232.044,33.8257,326.2923,0.0001501,2.101e-05,0.0,0 STARLINK-3552,1 51813U 22017AX  22348.42239287  .00002101  00000-0  15010-3 0  9990,2 51813  53.2178 232.0440 0002947  33.8257 326.2923 15.08844005 45754,6917.868,95.437,541.7719999999998,537.694,0.0
51813.0,STARLINK-3552,PAYLOAD,2022-12-14 19:40:33,15.0884051,0.0002664,53.2177,230.2582,36.4847,323.6326,0.00010946,1.454e-05,0.0,0 STARLINK-3552,1 51813U 22017AX  22348.81983360  .00001454  00000-0  10946-3 0  9994,2 51813  53.2177 230.2582 0002664  36.4847 323.6326 15.08840510 45812,6917.879,95.438,541.587,537.901,0.0
51813.0,STARLINK-3552,PAYLOAD,2022-12-15 02:02:05,15.08843566,0.0002871,53.217,229.0698,32.0927,328.024,0.00014904,2.085e-05,0.0,0 STARLINK-3552,1 51813U 22017AX  22349.08479125  .00002085  00000-0  14904-3 0  9992,2 51813  53.2170 229.0698 0002871  32.0927 328.0240 15.08843566 45964,6917.869000000002,95.437,541.721,537.748,0.0
51813.0,STARLINK-3552,PAYLOAD,2022-12-15 19:31:20,15.0884677,0.0002736,53.2172,225.7983,34.8221,325.295,0.00015524,2.184e-05,0.0,0 STARLINK-3552,1 51813U 22017AX  22349.81342868  .00002184  00000-0  15524-3 0  9995,2 51813  53.2172 225.7983 0002736  34.8221 325.2950 15.08846770 45960,6917.86,95.437,541.617,537.832,0.0
51813.0,STARLINK-3552,PAYLOAD,2022-12-16 08:14:25,15.08840909,0.0002821,53.2164,223.4198,33.3293,326.7877,-6.4453e-06,-3.91e-06,0.0,0 STARLINK-3552,1 51813U 22017AX  22350.34335265 -.00000391  00000-0 -64453-5 0  9995,2 51813  53.2164 223.4198 0002821  33.3293 326.7877 15.08840909 46156,6917.878000000002,95.437,541.694,537.7909999999998,0.0
51813.0,STARLINK-3552,PAYLOAD,2022-12-16 20:57:31,15.08834297,0.0002839,53.2159,221.0411,32.6463,327.4704,-5.1106e-05,-1.102e-05,0.0,0 STARLINK-3552,1 51813U 22017AX  22350.87327574 -.00001102  00000-0 -51106-4 0  9998,2 51813  53.2159 221.0411 0002839  32.6463 327.4704 15.08834297 46129,6917.898,95.438,541.727,537.799,0.0
51813.0,STARLINK-3552,PAYLOAD,2022-12-17 08:05:13,15.08838494,0.0002868,53.2167,218.9596,33.1866,326.9306,4.1636e-06,-2.22e-06,0.0,0 STARLINK-3552,1 51813U 22017AX  22351.33695620 -.00000222  00000-0  41636-5 0  9999,2 51813  53.2167 218.9596 0002868  33.1866 326.9306 15.08838494 46194,6917.885,95.438,541.734,537.766,0.0
51813.0,STARLINK-3552,PAYLOAD,2022-12-17 16:02:09,15.08833429,0.0002825,53.2171,217.4731,33.1758,326.9411,-7.528e-05,-1.486e-05,0.0,0 STARLINK-3552,1 51813U 22017AX  22351.66816366 -.00001486  00000-0 -75280-4 0  9992,2 51813  53.2171 217.4731 0002825  33.1758 326.9411 15.08833429 46355,6917.9,95.438,541.72,537.811,0.0
51813.0,STARLINK-3552,PAYLOAD,2022-12-17 19:12:55,15.08833077,0.0002816,53.217,216.8784,34.556,325.5615,-6.722600000000001e-05,-1.358e-05,0.0,0 STARLINK-3552,1 51813U 22017AX  22351.80064403 -.00001358  00000-0 -67226-4 0  9994,2 51813  53.2170 216.8784 0002816  34.5560 325.5615 15.08833077 46261,6917.901999999999,95.438,541.715,537.818,0.0
51813.0,STARLINK-3552,PAYLOAD,2022-12-18 07:56:00,15.08834903,0.0002838,53.2169,214.4995,32.4379,327.6787,2.8794e-05,1.7e-06,0.0,0 STARLINK-3552,1 51813U 22017AX  22352.33056201  .00000170  00000-0  28794-4 0  9996,2 51813  53.2169 214.4995 0002838  32.4379 327.6787 15.08834903 46347,6917.896,95.438,541.724,537.798,0.0
51813.0,STARLINK-3552,PAYLOAD,2022-12-18 19:03:42,15.08829565,0.0002807,53.2177,212.418,34.5821,325.5353,4.7571e-05,4.68e-06,0.0,0 STARLINK-3552,1 51813U 22017AX  22352.79424748  .00000468  00000-0  47571-4 0  9995,2 51813  53.2177 212.4180 0002807  34.5821 325.5353 15.08829565 46413,6917.9119999999975,95.438,541.719,537.835,0.0
51813.0,STARLINK-3552,PAYLOAD,2022-12-18 22:14:29,15.08826333,0.0002826,53.2175,211.8229,32.2268,327.8896,-4.7837000000000005e-06,-3.65e-06,0.0,0 STARLINK-3552,1 51813U 22017AX  22352.92673202 -.00000365  00000-0 -47837-5 0  9995,2 51813  53.2175 211.8229 0002826  32.2268 327.8896 15.08826333 46540,6917.922,95.438,541.742,537.832,0.0
51813.0,STARLINK-3552,PAYLOAD,2022-12-19 07:46:48,15.08829972,0.0002856,53.2173,210.0388,32.5359,327.5808,-5.1232e-06,-3.700000000000001e-06,0.0,0 STARLINK-3552,1 51813U 22017AX  22353.32417314 -.00000370  00000-0 -51232-5 0  9990,2 51813  53.2173 210.0388 0002856  32.5359 327.5808 15.08829972 46498,6917.911,95.438,541.752,537.8,0.0
51813.0,STARLINK-3552,PAYLOAD,2022-12-19 14:08:20,15.08833219,0.0002855,53.2181,208.8496,32.4367,327.68,5.9782e-05,6.63e-06,0.0,0 STARLINK-3552,1 51813U 22017AX  22353.58913058  .00000663  00000-0  59782-4 0  9994,2 51813  53.2181 208.8496 0002855  32.4367 327.6800 15.08833219 46648,6917.901,95.438,541.741,537.7909999999998,0.0
51813.0,STARLINK-3552,PAYLOAD,2022-12-19 18:54:30,15.08833521,0.0002856999999999,53.2174,207.9569,32.2675,327.8492,0.00012773,1.745e-05,0.0,0 STARLINK-3552,1 51813U 22017AX  22353.78784925  .00001745  00000-0  12773-3 0  9995,2 51813  53.2174 207.9569 0002857  32.2675 327.8492 15.08833521 46569,6917.9,95.438,541.742,537.789,0.0
51813.0,STARLINK-3552,PAYLOAD,2022-12-20 09:12:57,15.08845772,0.0002841,53.217,205.2805,32.763000000000005,327.3538,0.00012857,1.759e-05,0.0,0 STARLINK-3552,1 51813U 22017AX  22354.38400308  .00001759  00000-0  12857-3 0  9990,2 51813  53.2170 205.2805 0002841  32.7630 327.3538 15.08845772 46767,6917.863,95.437,541.693,537.762,0.0
